[{"OBJECT_NAME":"DAMPE","OBJECT_ID":"2015-078A","EPOCH":"2026-03-09T23:55:00.527232","MEAN_MOTION":15.30502084,"ECCENTRICITY":0.00138005,"INCLINATION":97.4588,"RA_OF_ASC_NODE":73.9866,"ARG_OF_PERICENTER":70.6942,"MEAN_ANOMALY":289.579,"EPHEMERIS_TYPE":0,"CLASSIFICATION_TYPE":"U","NORAD_CAT_ID":41173,"ELEMENT_SET_NO":999,"REV_AT_EPOCH":56937,"BSTAR":9.1158173e-5,"MEAN_MOTION_DOT":2.617e-5,"MEAN_MOTION_DDOT":0},{"OBJECT_NAME":"STARLINK-33679","OBJECT_ID":"2025-070A","EPOCH":"2026-03-09T21:19:52.510944","MEAN_MOTION":15.27591438,"ECCENTRICITY":0.0002205,"INCLINATION":42.9999,"RA_OF_ASC_NODE":258.9858,"ARG_OF_PERICENTER":253.8759,"MEAN_ANOMALY":106.1851,"EPHEMERIS_TYPE":0,"CLASSIFICATION_TYPE":"U","NORAD_CAT_ID":63460,"ELEMENT_SET_NO":999,"REV_AT_EPOCH":5300,"BSTAR":0.0008433761,"MEAN_MOTION_DOT":0.00023027,"MEAN_MOTION_DDOT":0}]
